{
"type": "FeatureCollection",
"name": "overture_highways",
"crs": { "type": "name", "properties": { "name": "urn:ogc:def:crs:OGC::CRS84" } },
"features": [
{ "type": "Feature", "properties": { "id": "ca7439a2-4533-41f8-86b5-880904dfd26d", "class": "secondary", "source_type": "osm", "name": "Северная улица" }, "geometry": { "type": "LineString", "coordinates": [ [ 49.328308, 53.5753572 ], [ 49.3246721, 53.5756788 ] ] } },
{ "type": "Feature", "properties": { "id": "57b2422d-3e38-47be-bd9a-94c34784a9b6", "class": "residential", "source_type": "osm", "name": "Рабочая улица" }, "geometry": { "type": "LineString", "coordinates": [ [ 49.328308, 53.5753572 ], [ 49.3282378, 53.5746656 ], [ 49.3275462, 53.5719573 ] ] } },
{ "type": "Feature", "properties": { "id": "ae1360fc-4f1b-4de8-8c9b-0ae837729c2d", "class": "residential", "source_type": "osm", "name": "Дачная улица" }, "geometry": { "type": "LineString", "coordinates": [ [ 49.3367366, 53.5746199 ], [ 49.335956, 53.5715669 ] ] } },
{ "type": "Feature", "properties": { "id": "090f9586-7867-4dc7-8477-c93ccc324f6a", "class": "secondary", "source_type": "osm", "name": "Северная улица" }, "geometry": { "type": "LineString", "coordinates": [ [ 49.3382106, 53.5744918 ], [ 49.337929, 53.5745157 ], [ 49.3367366, 53.5746199 ] ] } },
{ "type": "Feature", "properties": { "id": "adaf92a1-49d7-438d-aafe-205f1c16fd9a", "class": "secondary", "source_type": "my", "name": "Северная улица" }, "geometry": { "type": "LineString", "coordinates": [ [ 49.3367366, 53.5746199 ], [ 49.3357443, 53.5747121 ], [ 49.3349046, 53.5747842 ] ] } },
{ "type": "Feature", "properties": { "id": "2d818ea2-ea17-4139-88a5-03f561923043", "class": "residential", "source_type": "osm", "name": "Тополиная улица" }, "geometry": { "type": "LineString", "coordinates": [ [ 49.3339935, 53.5713224 ], [ 49.3345302, 53.5730434 ], [ 49.3348775, 53.5743846 ], [ 49.3349046, 53.5747842 ] ] } },
{ "type": "Feature", "properties": { "id": "32c44ce6-4482-49f6-840d-70a5c5c79844", "class": "secondary", "source_type": "osm", "name": "Северная улица" }, "geometry": { "type": "LineString", "coordinates": [ [ 49.3349046, 53.5747842 ], [ 49.3347156, 53.5747992 ], [ 49.3336273, 53.5749021 ], [ 49.3331215, 53.5749467 ] ] } },
{ "type": "Feature", "properties": { "id": "abec8187-5595-46ee-afbb-3f8568c86a78", "class": "secondary", "source_type": "osm", "name": "Северная улица" }, "geometry": { "type": "LineString", "coordinates": [ [ 49.3331215, 53.5749467 ], [ 49.3313011, 53.5751019 ] ] } },
{ "type": "Feature", "properties": { "id": "786682d0-2bdf-4108-9e57-2e40d8045869", "class": "residential", "source_type": "osm", "name": "Цветочная улица" }, "geometry": { "type": "LineString", "coordinates": [ [ 49.3331215, 53.5749467 ], [ 49.3321268, 53.5714393 ] ] } },
{ "type": "Feature", "properties": { "id": "e43b4a83-6ab5-44ce-bad9-2c9d9a23f9c6", "class": "residential", "source_type": "osm", "name": "Рябиновая улица" }, "geometry": { "type": "LineString", "coordinates": [ [ 49.3313011, 53.5751019 ], [ 49.3303016, 53.5716677 ] ] } },
{ "type": "Feature", "properties": { "id": "8249e910-3379-4942-9139-5274b664fbbc", "class": "service", "source_type": "osm", "name": null }, "geometry": { "type": "LineString", "coordinates": [ [ 49.3299093, 53.5736512 ], [ 49.33043, 53.5751776 ] ] } },
{ "type": "Feature", "properties": { "id": "39da5fc5-dd34-45d8-8139-ecf13a63ae24", "class": "secondary", "source_type": "osm", "name": "Северная улица" }, "geometry": { "type": "LineString", "coordinates": [ [ 49.3313011, 53.5751019 ], [ 49.33043, 53.5751776 ], [ 49.3298781, 53.575225 ] ] } },
{ "type": "Feature", "properties": { "id": "7a653614-6223-4c08-a2f6-4fb622f5ba79", "class": "service", "source_type": "my", "name": "12-я Садовая улица" }, "geometry": { "type": "LineString", "coordinates": [ [ 49.3305266, 53.5766455 ], [ 49.3313925, 53.575351 ] ] } },
{ "type": "Feature", "properties": { "id": "9f8aa18c-cda2-4bd0-afc8-d37dbbf59cd1", "class": "unclassified", "source_type": "osm", "name": "улица Коммассив" }, "geometry": { "type": "LineString", "coordinates": [ [ 49.3299167, 53.5755069 ], [ 49.3298781, 53.575225 ] ] } },
{ "type": "Feature", "properties": { "id": "a032431d-8bd1-432d-bd26-0b9206fc44c1", "class": "secondary", "source_type": "my", "name": "Северная улица" }, "geometry": { "type": "LineString", "coordinates": [ [ 49.3298781, 53.575225 ], [ 49.3294703, 53.5752603 ], [ 49.3287612, 53.5753206 ], [ 49.32862, 53.5753317 ] ] } },
{ "type": "Feature", "properties": { "id": "fd13360d-4345-435a-8d1e-52a92e15bab2", "class": "secondary", "source_type": "my", "name": "Северная улица" }, "geometry": { "type": "LineString", "coordinates": [ [ 49.32862, 53.5753317 ], [ 49.328308, 53.5753572 ] ] } },
{ "type": "Feature", "properties": { "id": "10d910a7-c6ac-4df3-878d-e2cfce891318", "class": "residential", "source_type": "my", "name": "Октябрьская улица" }, "geometry": { "type": "LineString", "coordinates": [ [ 49.32862, 53.5753317 ], [ 49.3287922, 53.5760485 ], [ 49.3289613, 53.5767789 ], [ 49.3292642, 53.5782234 ], [ 49.3294922, 53.5790592 ], [ 49.329541, 53.5792383 ], [ 49.3297732, 53.5800636 ], [ 49.3298712, 53.5803857 ], [ 49.3301661, 53.581688 ], [ 49.3304585, 53.5829033 ], [ 49.330577, 53.5833916 ], [ 49.3307905, 53.5838923 ], [ 49.3307624, 53.5840437 ], [ 49.330837, 53.584383 ], [ 49.3309409, 53.5847414 ], [ 49.3310298, 53.5850111 ], [ 49.3311779, 53.5852118 ], [ 49.3313022, 53.5853104 ], [ 49.3314501, 53.5853698 ], [ 49.3317358, 53.5854407 ], [ 49.332191, 53.585561 ] ] } },
{ "type": "Feature", "properties": { "id": "e802af87-ccc0-4e49-be4b-09684d29e3c6", "class": "service", "source_type": "osm", "name": "6-я Садовая улица" }, "geometry": { "type": "LineString", "coordinates": [ [ 49.3337133, 53.5783549 ], [ 49.3324484, 53.5802979 ] ] } },
{ "type": "Feature", "properties": { "id": "810ad878-c967-4318-b461-8a99a8dd5ff7", "class": "service", "source_type": "osm", "name": "8-я Садовая улица" }, "geometry": { "type": "LineString", "coordinates": [ [ 49.3328082, 53.5781391 ], [ 49.3320399, 53.5793477 ] ] } },
{ "type": "Feature", "properties": { "id": "672d9eaa-52de-41ca-baa7-19399c65bc91", "class": "service", "source_type": "osm", "name": "10-я Садовая улица" }, "geometry": { "type": "LineString", "coordinates": [ [ 49.3319138, 53.5779303 ], [ 49.3315309, 53.5785685 ] ] } },
{ "type": "Feature", "properties": { "id": "2855a92c-d2d2-43df-80cc-069da4db81f5", "class": "service", "source_type": "my", "name": "11-я Садовая улица" }, "geometry": { "type": "LineString", "coordinates": [ [ 49.3309798, 53.5775246 ], [ 49.3314408, 53.5768561 ], [ 49.3318271, 53.5762563 ], [ 49.3321265, 53.5758479 ], [ 49.3324791, 53.5752348 ] ] } },
{ "type": "Feature", "properties": { "id": "068e84df-a2b4-4043-a2ea-5333f7ad74be", "class": "service", "source_type": "osm", "name": "9-я Садовая улица" }, "geometry": { "type": "LineString", "coordinates": [ [ 49.3317601, 53.5778952 ], [ 49.3327423, 53.5762903 ], [ 49.3335791, 53.5751626 ], [ 49.3336029, 53.5750888 ], [ 49.3336273, 53.5749021 ] ] } },
{ "type": "Feature", "properties": { "id": "24badaec-0318-4ed9-8e35-c56124911f57", "class": "unclassified", "source_type": "my", "name": null }, "geometry": { "type": "LineString", "coordinates": [ [ 49.3299167, 53.5755069 ], [ 49.3313925, 53.575351 ], [ 49.3318027, 53.575612 ], [ 49.3321265, 53.5758479 ], [ 49.3327423, 53.5762903 ], [ 49.3335515, 53.5768084 ], [ 49.3342075, 53.5773418 ], [ 49.3349198, 53.57783 ], [ 49.3356262, 53.5783576 ], [ 49.3362246, 53.5788135 ], [ 49.3364684, 53.5789868 ] ] } },
{ "type": "Feature", "properties": { "id": "cc5f5d1b-348c-4bf3-a5b8-87034a7ceb06", "class": "unclassified", "source_type": "my", "name": "улица Коммассив" }, "geometry": { "type": "LineString", "coordinates": [ [ 49.3364684, 53.5789868 ], [ 49.3361563, 53.5789152 ], [ 49.3355368, 53.5787731 ], [ 49.3354278, 53.578747 ], [ 49.3346215, 53.5785632 ], [ 49.3345028, 53.578531 ], [ 49.3337133, 53.5783549 ], [ 49.3335697, 53.5783192 ], [ 49.3328082, 53.5781391 ], [ 49.3326911, 53.5781143 ], [ 49.3319138, 53.5779303 ], [ 49.3317601, 53.5778952 ], [ 49.3310864, 53.5777327 ], [ 49.3309798, 53.5775246 ], [ 49.3305266, 53.5766455 ], [ 49.3301981, 53.5760797 ], [ 49.3300282, 53.5758015 ], [ 49.3299167, 53.5755069 ] ] } },
{ "type": "Feature", "properties": { "id": "befa5515-08df-4823-865c-51fb991ccea1", "class": "service", "source_type": "osm", "name": "7-я Садовая улица" }, "geometry": { "type": "LineString", "coordinates": [ [ 49.3326911, 53.5781143 ], [ 49.3335515, 53.5768084 ], [ 49.3346732, 53.5750764 ], [ 49.3347101, 53.5749344 ], [ 49.3347156, 53.5747992 ] ] } },
{ "type": "Feature", "properties": { "id": "b2e01a03-9172-4170-9ef6-1c0daa53cca3", "class": "service", "source_type": "my", "name": "5-я Садовая улица" }, "geometry": { "type": "LineString", "coordinates": [ [ 49.3335697, 53.5783192 ], [ 49.3342075, 53.5773418 ], [ 49.33574, 53.5750429 ], [ 49.3357919, 53.5748403 ], [ 49.3357443, 53.5747121 ] ] } },
{ "type": "Feature", "properties": { "id": "fdb3f82f-6954-4312-b692-98a38afc21fe", "class": "service", "source_type": "osm", "name": "4-я Садовая улица" }, "geometry": { "type": "LineString", "coordinates": [ [ 49.3346215, 53.5785632 ], [ 49.3329908, 53.5810692 ] ] } },
{ "type": "Feature", "properties": { "id": "a7232929-ca52-4ea3-bac1-54c2ed9e6793", "class": "service", "source_type": "osm", "name": "2-я Садовая улица" }, "geometry": { "type": "LineString", "coordinates": [ [ 49.3355368, 53.5787731 ], [ 49.333406, 53.5819756 ] ] } },
{ "type": "Feature", "properties": { "id": "ca46edc3-1f2b-4c91-8e63-ac8428f97162", "class": "service", "source_type": "osm", "name": "3-я Садовая улица" }, "geometry": { "type": "LineString", "coordinates": [ [ 49.3345028, 53.578531 ], [ 49.3349198, 53.57783 ], [ 49.3368518, 53.5748802 ], [ 49.3367994, 53.5747603 ], [ 49.3367366, 53.5746199 ] ] } },
{ "type": "Feature", "properties": { "id": "f2ec00db-9bdf-4537-86db-59071023bbbe", "class": "service", "source_type": "osm", "name": "1-я Садовая улица" }, "geometry": { "type": "LineString", "coordinates": [ [ 49.3354278, 53.578747 ], [ 49.3356262, 53.5783576 ], [ 49.3379673, 53.5747317 ], [ 49.337929, 53.5745157 ] ] } },
{ "type": "Feature", "properties": { "id": "380824bc-5027-439b-aefd-a7b9c5afe211", "class": "service", "source_type": "osm", "name": "1-я Дачная улица" }, "geometry": { "type": "LineString", "coordinates": [ [ 49.3361563, 53.5789152 ], [ 49.3362246, 53.5788135 ], [ 49.338952, 53.5747512 ], [ 49.3389398, 53.5744278 ] ] } },
{ "type": "Feature", "properties": { "id": "442d2fa8-05a3-4e3a-9eab-06b75e0d4879", "class": "secondary", "source_type": "osm", "name": "Хрящёвское шоссе" }, "geometry": { "type": "LineString", "coordinates": [ [ 49.3398415, 53.5743331 ], [ 49.3391071, 53.5754298 ], [ 49.3383266, 53.5766299 ], [ 49.3367475, 53.5790572 ] ] } },
{ "type": "Feature", "properties": { "id": "cdc7c99f-bb92-42b1-81c3-67dd431486f2", "class": "service", "source_type": "osm", "name": null }, "geometry": { "type": "LineString", "coordinates": [ [ 49.3383266, 53.5766299 ], [ 49.3389182, 53.5768752 ], [ 49.3390053, 53.576882 ], [ 49.3391094, 53.5768889 ], [ 49.3392274, 53.5768156 ] ] } },
{ "type": "Feature", "properties": { "id": "38a5bd49-ae0c-427b-b97c-5adac8073730", "class": "service", "source_type": "osm", "name": null }, "geometry": { "type": "LineString", "coordinates": [ [ 49.3367475, 53.5790572 ], [ 49.3369475, 53.5791038 ], [ 49.3395994, 53.5796015 ], [ 49.3397102, 53.5795802 ], [ 49.3397907, 53.5795197 ], [ 49.3398355, 53.5794359 ], [ 49.3398175, 53.5793445 ], [ 49.3396906, 53.579213 ], [ 49.3396209, 53.5791079 ], [ 49.3396048, 53.5789837 ], [ 49.3396244, 53.5788668 ], [ 49.3397014, 53.5787926 ] ] } },
{ "type": "Feature", "properties": { "id": "f2bbf60e-12bb-4538-b878-d2d55de3e2c8", "class": "unclassified", "source_type": "osm", "name": "улица Коммассив" }, "geometry": { "type": "LineString", "coordinates": [ [ 49.3367475, 53.5790572 ], [ 49.3364684, 53.5789868 ] ] } },
{ "type": "Feature", "properties": { "id": "61bda9a3-05c5-4a87-9e31-9fe0be74adb5", "class": "secondary", "source_type": "osm", "name": "Хрящёвское шоссе" }, "geometry": { "type": "LineString", "coordinates": [ [ 49.3367475, 53.5790572 ], [ 49.336467, 53.5794881 ], [ 49.3362704, 53.5797902 ], [ 49.3324722, 53.5856309 ] ] } },
{ "type": "Feature", "properties": { "id": "625266d7-08fe-4073-92da-311d251448fa", "class": "service", "source_type": "osm", "name": null }, "geometry": { "type": "LineString", "coordinates": [ [ 49.3268158, 53.5789391 ], [ 49.3278982, 53.5790148 ] ] } },
{ "type": "Feature", "properties": { "id": "172aa4e1-d2b3-4576-ac13-99f0cc8d56a0", "class": "service", "source_type": "osm", "name": null }, "geometry": { "type": "LineString", "coordinates": [ [ 49.3277178, 53.5770888 ], [ 49.3275159, 53.5769642 ], [ 49.3264019, 53.5769099 ] ] } },
{ "type": "Feature", "properties": { "id": "a5b8e873-70e9-4f53-82f3-fd86ff89c241", "class": "service", "source_type": "osm", "name": null }, "geometry": { "type": "LineString", "coordinates": [ [ 49.3251741, 53.5771096 ], [ 49.3264019, 53.5769099 ], [ 49.3268376, 53.5776881 ] ] } },
{ "type": "Feature", "properties": { "id": "bd98e413-af5c-4787-b633-fb4968ddd77d", "class": "unclassified", "source_type": "osm", "name": null }, "geometry": { "type": "LineString", "coordinates": [ [ 49.325855, 53.5780602 ], [ 49.3260151, 53.5784054 ], [ 49.3260946, 53.5785378 ], [ 49.3261955, 53.5786446 ], [ 49.3263653, 53.5787659 ], [ 49.3268158, 53.5789391 ], [ 49.3268384, 53.579408 ] ] } },
{ "type": "Feature", "properties": { "id": "fd2e4ba3-f3cf-4ce9-a59c-a52e37a10406", "class": "unclassified", "source_type": "osm", "name": null }, "geometry": { "type": "LineString", "coordinates": [ [ 49.325855, 53.5780602 ], [ 49.325863, 53.5785912 ], [ 49.3259161, 53.5795585 ], [ 49.3264252, 53.5812553 ] ] } },
{ "type": "Feature", "properties": { "id": "635e138d-90b5-4ca2-80d1-076f7dda65be", "class": "service", "source_type": "osm", "name": null }, "geometry": { "type": "LineString", "coordinates": [ [ 49.3397921, 53.5757199 ], [ 49.340428, 53.575954 ], [ 49.3413004, 53.576285 ], [ 49.3415091, 53.5764948 ], [ 49.3422031, 53.5767729 ] ] } },
{ "type": "Feature", "properties": { "id": "5436d087-793b-4e6e-85bf-c42ab52465ed", "class": "service", "source_type": "osm", "name": null }, "geometry": { "type": "LineString", "coordinates": [ [ 49.3391071, 53.5754298 ], [ 49.3393088, 53.5755263 ], [ 49.3397921, 53.5757199 ], [ 49.3399235, 53.5760036 ], [ 49.340136, 53.5760656 ], [ 49.3403008, 53.5760189 ], [ 49.340428, 53.575954 ], [ 49.3404909, 53.5759216 ], [ 49.3411318, 53.5752485 ] ] } },
{ "type": "Feature", "properties": { "id": "2a995b3b-35a4-4373-b795-348e964f2b89", "class": "trunk", "source_type": "osm", "name": "Обход Тольятти" }, "geometry": { "type": "LineString", "coordinates": [ [ 49.3155243, 53.6093826 ], [ 49.3175513, 53.6092248 ], [ 49.3199607, 53.6090418 ], [ 49.3219917, 53.6088425 ], [ 49.3235984, 53.608662 ], [ 49.3253034, 53.6084564 ], [ 49.328805, 53.6080417 ], [ 49.3408549, 53.6066167 ], [ 49.343466, 53.6063536 ], [ 49.3583596, 53.6048522 ], [ 49.3631177, 53.6043854 ], [ 49.3635222, 53.6043488 ], [ 49.3731686, 53.6033997 ], [ 49.3881292, 53.6019198 ], [ 49.4032184, 53.6004271 ], [ 49.4077325, 53.5999877 ], [ 49.4100886, 53.5997526 ], [ 49.418224, 53.5989742 ], [ 49.4243019, 53.5984015 ], [ 49.4288785, 53.5979702 ], [ 49.433235, 53.5975597 ], [ 49.4481915, 53.5961502 ], [ 49.4501547, 53.5959589 ], [ 49.4568175, 53.5953097 ], [ 49.4631454, 53.5946381 ], [ 49.4652772, 53.5944119 ], [ 49.4777457, 53.5930329 ], [ 49.4835055, 53.5924602 ], [ 49.4871358, 53.592094 ], [ 49.492709, 53.5915319 ], [ 49.4963211, 53.5911675 ], [ 49.5076293, 53.5900022 ], [ 49.5189428, 53.5888782 ], [ 49.522518, 53.5884979 ], [ 49.5230144, 53.5884451 ], [ 49.5267686, 53.5878983 ], [ 49.5281453, 53.5876674 ], [ 49.5287329, 53.5875567 ], [ 49.5314258, 53.5870154 ], [ 49.5349717, 53.5861461 ], [ 49.536485, 53.5857405 ], [ 49.5376217, 53.5854359 ], [ 49.5426267, 53.5841876 ], [ 49.5461833, 53.5831176 ], [ 49.5499813, 53.5816431 ], [ 49.5534038, 53.580073 ], [ 49.5554883, 53.5788813 ], [ 49.5566708, 53.5781652 ], [ 49.5572979, 53.5777814 ], [ 49.5578818, 53.5773975 ], [ 49.5583332, 53.5770807 ], [ 49.5587684, 53.5767639 ], [ 49.5591652, 53.5764363 ], [ 49.5593921, 53.5762386 ], [ 49.5596027, 53.5760458 ], [ 49.560063, 53.5755989 ], [ 49.56048, 53.5751417 ], [ 49.5611404, 53.5743226 ], [ 49.5622902, 53.5728248 ], [ 49.5631529, 53.5718559 ], [ 49.5642537, 53.5708798 ], [ 49.5671753, 53.5686249 ], [ 49.5685153, 53.5676333 ], [ 49.5696848, 53.5667965 ], [ 49.5732146, 53.564098 ], [ 49.5779025, 53.5605819 ], [ 49.578461, 53.560163 ], [ 49.5811218, 53.5583316 ], [ 49.5831978, 53.5566929 ], [ 49.5845094, 53.5557685 ], [ 49.5870731, 53.5538767 ], [ 49.5875064, 53.5535642 ], [ 49.5897194, 53.5518937 ], [ 49.5911901, 53.5507662 ], [ 49.5923553, 53.5497378 ], [ 49.5930436, 53.5491465 ], [ 49.5965302, 53.5463866 ], [ 49.5966467, 53.5462967 ], [ 49.6051416, 53.5396642 ], [ 49.6056709, 53.5392512 ], [ 49.6147661, 53.5320673 ], [ 49.6158625, 53.5312004 ], [ 49.6167992, 53.5304659 ], [ 49.6177574, 53.5297192 ], [ 49.6183419, 53.5292857 ], [ 49.6188825, 53.5288893 ], [ 49.6195029, 53.5283968 ], [ 49.6204734, 53.5276005 ], [ 49.6214093, 53.5268844 ], [ 49.6218107, 53.5266024 ], [ 49.6220626, 53.5264255 ], [ 49.6226558, 53.5260409 ], [ 49.6231592, 53.5257537 ], [ 49.6236425, 53.5254847 ], [ 49.6243119, 53.5251122 ], [ 49.6250084, 53.5247158 ], [ 49.625485, 53.5244347 ], [ 49.6262902, 53.5239197 ], [ 49.6271662, 53.5233365 ], [ 49.6283866, 53.5224941 ], [ 49.6292789, 53.5218468 ], [ 49.6302892, 53.5210958 ], [ 49.6321797, 53.5196555 ], [ 49.6337253, 53.518421 ] ] } },
{ "type": "Feature", "properties": { "id": "9f9adc0f-4fa3-46f3-926c-0acf9e140b7d", "class": "trunk", "source_type": "osm", "name": "Обход Тольятти" }, "geometry": { "type": "LineString", "coordinates": [ [ 49.6338358, 53.5184872 ], [ 49.6323563, 53.5196707 ], [ 49.6303455, 53.5211989 ], [ 49.6294936, 53.5218386 ], [ 49.6286096, 53.5224784 ], [ 49.6270916, 53.52353 ], [ 49.6264096, 53.5239839 ], [ 49.6224541, 53.5266166 ], [ 49.6220669, 53.5268666 ], [ 49.619976, 53.5282572 ], [ 49.6194001, 53.5286542 ], [ 49.6189068, 53.5290105 ], [ 49.6178758, 53.5297775 ], [ 49.6148187, 53.5321757 ], [ 49.6052803, 53.5397096 ], [ 49.5967606, 53.5463487 ], [ 49.5931892, 53.5491917 ], [ 49.5924762, 53.5497896 ], [ 49.5913731, 53.5507642 ], [ 49.5898464, 53.551949 ], [ 49.5872542, 53.5538771 ], [ 49.5846576, 53.5558159 ], [ 49.5833184, 53.5567496 ], [ 49.5812649, 53.558385 ], [ 49.5785805, 53.5602205 ], [ 49.5732778, 53.5641974 ], [ 49.569778, 53.5668596 ], [ 49.5673249, 53.5687148 ], [ 49.5643379, 53.5709732 ], [ 49.5632999, 53.5719068 ], [ 49.5624769, 53.5728293 ], [ 49.561289, 53.5743486 ], [ 49.5607854, 53.5750009 ], [ 49.5602224, 53.5756099 ], [ 49.5597576, 53.576068 ], [ 49.5595235, 53.5762953 ], [ 49.5592644, 53.576508 ], [ 49.5588773, 53.5768234 ], [ 49.5579694, 53.5774735 ], [ 49.5572817, 53.5779255 ], [ 49.556781, 53.5782418 ], [ 49.5555683, 53.5789657 ], [ 49.5534519, 53.5801588 ], [ 49.5500704, 53.5817096 ], [ 49.5462606, 53.5831886 ], [ 49.5426707, 53.5842686 ], [ 49.5376596, 53.5855184 ], [ 49.5350475, 53.5862184 ], [ 49.5314799, 53.5870931 ], [ 49.5287506, 53.5876417 ], [ 49.5281852, 53.5877489 ], [ 49.52679, 53.5879817 ], [ 49.5230466, 53.5885268 ], [ 49.5189677, 53.5889607 ], [ 49.5076529, 53.5900848 ], [ 49.4963254, 53.5912521 ], [ 49.4871574, 53.5921769 ], [ 49.4835291, 53.5925429 ], [ 49.47778, 53.5931314 ], [ 49.4653023, 53.5944944 ], [ 49.4568424, 53.5953922 ], [ 49.4482144, 53.5962329 ], [ 49.4288807, 53.5980607 ], [ 49.4243761, 53.5984866 ], [ 49.4101056, 53.5998357 ], [ 49.4077479, 53.600071 ], [ 49.3635468, 53.6044401 ], [ 49.3631425, 53.6044775 ], [ 49.3408783, 53.6066992 ], [ 49.3253219, 53.6085448 ], [ 49.3236011, 53.6087518 ], [ 49.3219831, 53.6089331 ], [ 49.3199713, 53.6091327 ], [ 49.3152713, 53.6094897 ] ] } }
]
}
